*******************************************************************************
Ephemeris / WWW_USER Fri Mar  7 11:09:58 2025 Pasadena, USA      / Horizons    
*******************************************************************************
Target body name: (2018 US2)                      {source: JPL#14}
Center body name: Earth (399)                     {source: DE441}
Center-site name: Mauna Kea
*******************************************************************************
Start time      : A.D. 2018-Aug-09 05:04:00.0000 UT      
Stop  time      : A.D. 2018-Aug-09 15:50:00.0000 UT      
Step-size       : 1 minutes
*******************************************************************************
Target pole/equ : undefined
Target radii    : undefined                                                    
Center geodetic : 204.5278, 19.8260847, 4.21024   {E-lon(deg),Lat(deg),Alt(km)}
Center cylindric: 204.5278, 6006.35451, 2151.0229 {E-lon(deg),Dxy(km),Dz(km)}
Center pole/equ : ITRF93                          {East-longitude positive}
Center radii    : 6378.137, 6378.137, 6356.752 km {Equator_a, b, pole_c}       
Target primary  : Sun
Vis. interferer : MOON (R_eq= 1737.400) km        {source: DE441}
Rel. light bend : Sun                             {source: DE441}
Rel. lght bnd GM: 1.3271E+11 km^3/s^2                                          
Small-body perts: Yes                             {source: SB441-N16}
Atmos refraction: NO (AIRLESS)
RA format       : HMS
Time format     : CAL 
Calendar mode   : Mixed Julian/Gregorian
RTS-only print  : NO       
EOP file        : eop.250306.p250602                                           
EOP coverage    : DATA-BASED 1962-JAN-20 TO 2025-MAR-06. PREDICTS-> 2025-JUN-01
Units conversion: 1 au= 149597870.700 km, c= 299792.458 km/s, 1 day= 86400.0 s 
Table cut-offs 1: Elevation (-90.0deg=NO ),Airmass (>38.000=NO), Daylight (YES)
Table cut-offs 2: Solar elongation (  0.0,180.0=NO ),Local Hour Angle( 0.0=NO )
Table cut-offs 3: RA/DEC angular rate (     0.0=NO )                           
*******************************************************************************
Initial IAU76/J2000 heliocentric ecliptic osculating elements (au, days, deg.):
  EPOCH=  2458424.5 ! 2018-Nov-02.00 (TDB)         Residual RMS= .2503         
   EC= .6580934192644969   QR= 1.019516546973241   TP= 2458405.4003266119      
   OM= 225.9089147719754   W=  151.3321843630243   IN= 7.044798776353047       
  Equivalent ICRF heliocentric cartesian coordinates (au, au/d):
   X= 8.026033061055595E-01  Y= 6.200562709856074E-01  Z= 2.826199844552283E-01
  VX=-1.102263624249032E-02 VY= 1.780430100977025E-02 VZ= 4.937770740848229E-03
Asteroid physical parameters (km, seconds, rotational period in hours):        
   GM= n.a.                RAD= n.a.               ROTPER= n.a.                
   H= 24.88                G= .150                 B-V= n.a.                   
                           ALBEDO= n.a.            STYP= n.a.                  
*******************************************************************************
 Date__(UT)__HR:MN     R.A._________(ICRF)_________DEC
******************************************************
$$SOE
 2018-Aug-09 11:13     19 21 51.783182 +04 04 19.79794
 2018-Aug-09 11:14     19 21 51.720144 +04 04 20.35183
 2018-Aug-09 11:15     19 21 51.657123 +04 04 20.90570
 2018-Aug-09 11:16     19 21 51.594122 +04 04 21.45954
 2018-Aug-09 11:17     19 21 51.531138 +04 04 22.01336
 2018-Aug-09 11:18     19 21 51.468174 +04 04 22.56715
 2018-Aug-09 11:19     19 21 51.405228 +04 04 23.12091
 2018-Aug-09 11:20     19 21 51.342301 +04 04 23.67464
 2018-Aug-09 11:21     19 21 51.279393 +04 04 24.22834
 2018-Aug-09 11:22     19 21 51.216504 +04 04 24.78202
 2018-Aug-09 11:23     19 21 51.153634 +04 04 25.33567
 2018-Aug-09 11:24     19 21 51.090783 +04 04 25.88930
 2018-Aug-09 11:25     19 21 51.027952 +04 04 26.44289
 2018-Aug-09 11:26     19 21 50.965140 +04 04 26.99646
 2018-Aug-09 11:27     19 21 50.902348 +04 04 27.55001
 2018-Aug-09 11:28     19 21 50.839575 +04 04 28.10353
 2018-Aug-09 11:29     19 21 50.776822 +04 04 28.65702
 2018-Aug-09 11:30     19 21 50.714088 +04 04 29.21048
 2018-Aug-09 11:31     19 21 50.651375 +04 04 29.76392
 2018-Aug-09 11:32     19 21 50.588681 +04 04 30.31733
 2018-Aug-09 11:33     19 21 50.526008 +04 04 30.87072
 2018-Aug-09 11:34     19 21 50.463354 +04 04 31.42408
 2018-Aug-09 11:35     19 21 50.400721 +04 04 31.97741
 2018-Aug-09 11:36     19 21 50.338108 +04 04 32.53072
 2018-Aug-09 11:37     19 21 50.275516 +04 04 33.08400
 2018-Aug-09 11:38     19 21 50.212944 +04 04 33.63726
 2018-Aug-09 11:39     19 21 50.150393 +04 04 34.19049
 2018-Aug-09 11:40     19 21 50.087862 +04 04 34.74369
 2018-Aug-09 11:41     19 21 50.025352 +04 04 35.29687
 2018-Aug-09 11:42     19 21 49.962863 +04 04 35.85003
 2018-Aug-09 11:43     19 21 49.900394 +04 04 36.40316
 2018-Aug-09 11:44     19 21 49.837947 +04 04 36.95626
 2018-Aug-09 11:45     19 21 49.775521 +04 04 37.50934
 2018-Aug-09 11:46     19 21 49.713116 +04 04 38.06239
 2018-Aug-09 11:47     19 21 49.650732 +04 04 38.61542
 2018-Aug-09 11:48     19 21 49.588370 +04 04 39.16843
 2018-Aug-09 11:49     19 21 49.526029 +04 04 39.72141
 2018-Aug-09 11:50     19 21 49.463709 +04 04 40.27436
 2018-Aug-09 11:51     19 21 49.401411 +04 04 40.82729
 2018-Aug-09 11:52     19 21 49.339135 +04 04 41.38020
 2018-Aug-09 11:53     19 21 49.276880 +04 04 41.93308
 2018-Aug-09 11:54     19 21 49.214648 +04 04 42.48594
 2018-Aug-09 11:55     19 21 49.152437 +04 04 43.03877
 2018-Aug-09 11:56     19 21 49.090248 +04 04 43.59158
 2018-Aug-09 11:57     19 21 49.028081 +04 04 44.14437
 2018-Aug-09 11:58     19 21 48.965937 +04 04 44.69713
 2018-Aug-09 11:59     19 21 48.903814 +04 04 45.24987
 2018-Aug-09 12:00     19 21 48.841714 +04 04 45.80258
 2018-Aug-09 12:01     19 21 48.779637 +04 04 46.35528
 2018-Aug-09 12:02     19 21 48.717581 +04 04 46.90794
 2018-Aug-09 12:03     19 21 48.655549 +04 04 47.46059
 2018-Aug-09 12:04     19 21 48.593539 +04 04 48.01321
 2018-Aug-09 12:05     19 21 48.531551 +04 04 48.56581
 2018-Aug-09 12:06     19 21 48.469587 +04 04 49.11838
 2018-Aug-09 12:07     19 21 48.407645 +04 04 49.67094
 2018-Aug-09 12:08     19 21 48.345726 +04 04 50.22347
 2018-Aug-09 12:09     19 21 48.283830 +04 04 50.77597
 2018-Aug-09 12:10     19 21 48.221957 +04 04 51.32846
 2018-Aug-09 12:11     19 21 48.160108 +04 04 51.88092
 2018-Aug-09 12:12     19 21 48.098281 +04 04 52.43336
 2018-Aug-09 12:13     19 21 48.036478 +04 04 52.98578
 2018-Aug-09 12:14     19 21 47.974698 +04 04 53.53817
 2018-Aug-09 12:15     19 21 47.912942 +04 04 54.09055
 2018-Aug-09 12:16     19 21 47.851209 +04 04 54.64290
 2018-Aug-09 12:17     19 21 47.789500 +04 04 55.19523
 2018-Aug-09 12:18     19 21 47.727814 +04 04 55.74754
 2018-Aug-09 12:19     19 21 47.666152 +04 04 56.29982
 2018-Aug-09 12:20     19 21 47.604514 +04 04 56.85209
 2018-Aug-09 12:21     19 21 47.542899 +04 04 57.40433
 2018-Aug-09 12:22     19 21 47.481309 +04 04 57.95655
 2018-Aug-09 12:23     19 21 47.419743 +04 04 58.50875
 2018-Aug-09 12:24     19 21 47.358200 +04 04 59.06093
 2018-Aug-09 12:25     19 21 47.296682 +04 04 59.61309
 2018-Aug-09 12:26     19 21 47.235188 +04 05 00.16523
 2018-Aug-09 12:27     19 21 47.173718 +04 05 00.71735
 2018-Aug-09 12:28     19 21 47.112273 +04 05 01.26944
 2018-Aug-09 12:29     19 21 47.050852 +04 05 01.82152
 2018-Aug-09 12:30     19 21 46.989455 +04 05 02.37358
 2018-Aug-09 12:31     19 21 46.928083 +04 05 02.92561
 2018-Aug-09 12:32     19 21 46.866735 +04 05 03.47763
 2018-Aug-09 12:33     19 21 46.805412 +04 05 04.02962
 2018-Aug-09 12:34     19 21 46.744114 +04 05 04.58160
 2018-Aug-09 12:35     19 21 46.682841 +04 05 05.13355
 2018-Aug-09 12:36     19 21 46.621592 +04 05 05.68549
 2018-Aug-09 12:37     19 21 46.560369 +04 05 06.23740
 2018-Aug-09 12:38     19 21 46.499170 +04 05 06.78930
 2018-Aug-09 12:39     19 21 46.437996 +04 05 07.34118
 2018-Aug-09 12:40     19 21 46.376847 +04 05 07.89303
 2018-Aug-09 12:41     19 21 46.315724 +04 05 08.44487
 2018-Aug-09 12:42     19 21 46.254626 +04 05 08.99669
 2018-Aug-09 12:43     19 21 46.193553 +04 05 09.54849
 2018-Aug-09 12:44     19 21 46.132505 +04 05 10.10027
 2018-Aug-09 12:45     19 21 46.071483 +04 05 10.65204
 2018-Aug-09 12:46     19 21 46.010486 +04 05 11.20378
 2018-Aug-09 12:47     19 21 45.949514 +04 05 11.75551
 2018-Aug-09 12:48     19 21 45.888568 +04 05 12.30722
 2018-Aug-09 12:49     19 21 45.827648 +04 05 12.85890
 2018-Aug-09 12:50     19 21 45.766753 +04 05 13.41058
 2018-Aug-09 12:51     19 21 45.705884 +04 05 13.96223
 2018-Aug-09 12:52     19 21 45.645041 +04 05 14.51386
 2018-Aug-09 12:53     19 21 45.584224 +04 05 15.06548
 2018-Aug-09 12:54     19 21 45.523432 +04 05 15.61708
 2018-Aug-09 12:55     19 21 45.462667 +04 05 16.16866
 2018-Aug-09 12:56     19 21 45.401927 +04 05 16.72023
 2018-Aug-09 12:57     19 21 45.341214 +04 05 17.27178
 2018-Aug-09 12:58     19 21 45.280526 +04 05 17.82331
 2018-Aug-09 12:59     19 21 45.219865 +04 05 18.37482
 2018-Aug-09 13:00     19 21 45.159230 +04 05 18.92632
 2018-Aug-09 13:01     19 21 45.098621 +04 05 19.47780
 2018-Aug-09 13:02     19 21 45.038038 +04 05 20.02926
 2018-Aug-09 13:03     19 21 44.977482 +04 05 20.58070
 2018-Aug-09 13:04     19 21 44.916952 +04 05 21.13213
 2018-Aug-09 13:05     19 21 44.856449 +04 05 21.68355
 2018-Aug-09 13:06     19 21 44.795972 +04 05 22.23494
 2018-Aug-09 13:07     19 21 44.735521 +04 05 22.78633
 2018-Aug-09 13:08     19 21 44.675097 +04 05 23.33769
 2018-Aug-09 13:09     19 21 44.614700 +04 05 23.88904
 2018-Aug-09 13:10     19 21 44.554330 +04 05 24.44037
 2018-Aug-09 13:11     19 21 44.493986 +04 05 24.99169
 2018-Aug-09 13:12     19 21 44.433668 +04 05 25.54299
 2018-Aug-09 13:13     19 21 44.373378 +04 05 26.09428
 2018-Aug-09 13:14     19 21 44.313115 +04 05 26.64555
 2018-Aug-09 13:15     19 21 44.252878 +04 05 27.19681
